NORAD_CAT_ID,OBJECT_NAME,OBJECT_TYPE,EPOCH,MEAN_MOTION,ECCENTRICITY,INCLINATION,RA_OF_ASC_NODE,ARG_OF_PERICENTER,MEAN_ANOMALY,BSTAR,MEAN_MOTION_DOT,MEAN_MOTION_DDOT,TLE_LINE0,TLE_LINE1,TLE_LINE2,SEMIMAJOR_AXIS,PERIOD,APOGEE,PERIGEE,DECAYED
50843.0,STARLINK-3325,PAYLOAD,2024-04-22 17:10:58,15.08829502,0.0002242,53.2188,18.5738,138.713,221.4032,0.0001651,2.34e-05,0.0,0 STARLINK-3325,1 50843U 22001AS  24113.71595601  .00002340  00000-0  16510-3 0  9995,2 50843  53.2188  18.5738 0002242 138.7130 221.4032 15.08829502127907,6917.912,95.438,541.328,538.226,0.0
50843.0,STARLINK-3325,PAYLOAD,2024-04-22 21:57:07,15.08835042,0.0002541,53.2187,17.6837,131.8678,228.2531,0.00018633,2.678e-05,0.0,0 STARLINK-3325,1 50843U 22001AS  24113.91467507  .00002678  00000-0  18633-3 0  9992,2 50843  53.2187  17.6837 0002541 131.8678 228.2531 15.08835042126734,6917.896,95.438,541.518,538.003,0.0
50843.0,STARLINK-3325,PAYLOAD,2024-04-23 01:07:54,15.08835545,0.0001809,53.2187,17.0925,76.0012,284.1181,0.00022843,3.349e-05,0.0,0 STARLINK-3325,1 50843U 22001AS  24114.04715840  .00003349  00000-0  22843-3 0  9997,2 50843  53.2187  17.0925 0001809  76.0012 284.1181 15.08835545127959,6917.894,95.438,541.01,538.508,0.0
50843.0,STARLINK-3325,PAYLOAD,2024-04-23 21:47:54,15.08845385,0.0001608,53.2183,13.2258,84.1698,275.9478,-6.1173e-05,-1.262e-05,0.0,0 STARLINK-3325,1 50843U 22001AS  24114.90827480 -.00001262  00000-0 -61173-4 0  9990,2 50843  53.2183  13.2258 0001608  84.1698 275.9478 15.08845385126880,6917.864,95.437,540.841,538.617,0.0
50843.0,STARLINK-3325,PAYLOAD,2024-04-24 02:34:03,15.08865038,0.0001311,53.2192,12.3273,101.8622,258.2517,0.0002464,3.638e-05,0.0,0 STARLINK-3325,1 50843U 22001AS  24115.10698204  .00003638  00000-0  24640-3 0  9997,2 50843  53.2192  12.3273 0001311 101.8622 258.2517 15.08865038128115,6917.804,95.436,540.576,538.762,0.0
50843.0,STARLINK-3325,PAYLOAD,2024-04-24 21:38:41,15.08841346,0.0002262,53.2194,8.7542,140.1863,219.9296,-7.9582e-05,-1.555e-05,0.0,0 STARLINK-3325,1 50843U 22001AS  24115.90187369 -.00001555  00000-0 -79582-4 0  9994,2 50843  53.2194   8.7542 0002262 140.1863 219.9296 15.08841346127038,6917.876,95.437,541.306,538.176,0.0
50843.0,STARLINK-3325,PAYLOAD,2024-04-25 02:24:50,15.08857579,0.0001358,53.219,7.8726,71.1574,288.9565,0.00018212,2.613e-05,0.0,0 STARLINK-3325,1 50843U 22001AS  24116.10058479  .00002613  00000-0  18212-3 0  9992,2 50843  53.2190   7.8726 0001358  71.1574 288.9565 15.08857579128261,6917.827,95.436,540.631,538.752,0.0
50843.0,STARLINK-3325,PAYLOAD,2024-04-25 19:54:05,15.08851642,0.0001349,53.2213,4.5877,106.6169,253.4972,-4.6971e-05,-1.036e-05,0.0,0 STARLINK-3325,1 50843U 22001AS  24116.82923165 -.00001036  00000-0 -46971-4 0  9998,2 50843  53.2213   4.5877 0001349 106.6169 253.4972 15.08851642128378,6917.845,95.437,540.643,538.777,0.0
50843.0,STARLINK-3325,PAYLOAD,2024-04-25 21:29:28,15.08851955,0.0001304,53.2201,4.2944,99.0761,261.0379,-4.2186e-05,-9.59e-06,0.0,0 STARLINK-3325,1 50843U 22001AS  24116.89546956 -.00000959  00000-0 -42186-4 0  9991,2 50843  53.2201   4.2944 0001304  99.0761 261.0379 15.08851955127182,6917.844,95.437,540.611,538.807,0.0
50843.0,STARLINK-3325,PAYLOAD,2024-04-25 23:04:51,15.08853884,0.0001294,53.2203,3.9989,91.4177,268.6964,-3.2205e-05,-8.01e-06,0.0,0 STARLINK-3325,1 50843U 22001AS  24116.96170821 -.00000801  00000-0 -32205-4 0  9990,2 50843  53.2203   3.9989 0001294  91.4177 268.6964 15.08853884127191,6917.838,95.437,540.598,538.808,0.0
50843.0,STARLINK-3325,PAYLOAD,2024-04-26 21:20:15,15.0885162,0.0001255,53.2195,359.8421,81.1489,278.9646,1.1591e-05,-1.03e-06,0.0,0 STARLINK-3325,1 50843U 22001AS  24117.88906978 -.00000103  00000-0  11591-4 0  9991,2 50843  53.2195 359.8421 0001255  81.1489 278.9646 15.08851620127337,6917.845,95.437,540.578,538.842,0.0
50843.0,STARLINK-3325,PAYLOAD,2024-04-27 02:06:24,15.08858477,0.0001237,53.2186,358.9466,78.8536,281.2595,0.00011135,1.486e-05,0.0,0 STARLINK-3325,1 50843U 22001AS  24118.08778212  .00001486  00000-0  11135-3 0  9999,2 50843  53.2186 358.9466 0001237  78.8536 281.2595 15.08858477128565,6917.824,95.436,540.545,538.833,0.0
50843.0,STARLINK-3325,PAYLOAD,2024-04-27 08:27:57,15.08849232,0.0001208,53.217,357.7557,74.6584,285.4542,0.00016946,2.411e-05,0.0,0 STARLINK-3325,1 50843U 22001AS  24118.35274834  .00002411  00000-0  16946-3 0  9994,2 50843  53.2170 357.7557 0001208  74.6584 285.4542 15.08849232128603,6917.852,95.437,540.553,538.881,0.0
50843.0,STARLINK-3325,PAYLOAD,2024-04-27 21:11:03,15.08836004,0.0001437,53.2195,355.385,100.1265,259.9889,-6.8816e-05,-1.383e-05,0.0,0 STARLINK-3325,1 50843U 22001AS  24118.88268109 -.00001383  00000-0 -68816-4 0  9993,2 50843  53.2195 355.3850 0001437 100.1265 259.9889 15.08836004128686,6917.893,95.438,540.752,538.764,0.0
50843.0,STARLINK-3325,PAYLOAD,2024-04-27 22:46:26,15.08839547,0.0001276,53.2189,355.0897,103.7469,256.3665,-6.5944e-05,-1.337e-05,0.0,0 STARLINK-3325,1 50843U 22001AS  24118.94891855 -.00001337  00000-0 -65944-4 0  9998,2 50843  53.2189 355.0897 0001276 103.7469 256.3665 15.08839547127499,6917.882,95.438,540.629,538.864,0.0
50843.0,STARLINK-3325,PAYLOAD,2024-04-28 21:01:48,15.08854672,0.0001283,53.2182,350.9204,91.0997,269.0143,0.00013773,1.906e-05,0.0,0 STARLINK-3325,1 50843U 22001AS  24119.87626014  .00001906  00000-0  13773-3 0  9996,2 50843  53.2182 350.9204 0001283  91.0997 269.0143 15.08854672128838,6917.836,95.437,540.588,538.813,0.0
50843.0,STARLINK-3325,PAYLOAD,2024-04-28 22:37:11,15.08869587,0.0001114,53.2181,350.622,80.5704,279.5414,0.00023441,3.448e-05,0.0,0 STARLINK-3325,1 50843U 22001AS  24119.94248894  .00003448  00000-0  23441-3 0  9996,2 50843  53.2181 350.6220 0001114  80.5704 279.5414 15.08869587127640,6917.79,95.436,540.426,538.884,0.0
50843.0,STARLINK-3325,PAYLOAD,2024-04-29 00:12:34,15.08870561,0.0001117,53.2175,350.3246,76.1044,284.0072,0.00034984,5.289e-05,0.0,0 STARLINK-3325,1 50843U 22001AS  24120.00873294  .00005289  00000-0  34984-3 0  9992,2 50843  53.2175 350.3246 0001117  76.1044 284.0072 15.08870561128858,6917.787,95.436,540.425,538.879,0.0
50843.0,STARLINK-3325,PAYLOAD,2024-04-29 08:09:31,15.0883653,0.0001831,53.2176,348.8396,86.0973,274.0229,-0.00011532,-2.123e-05,0.0,0 STARLINK-3325,1 50843U 22001AS  24120.33994931 -.00002123  00000-0 -11532-3 0  9990,2 50843  53.2176 348.8396 0001831  86.0973 274.0229 15.08836530128908,6917.891,95.438,541.023,538.489,0.0
50843.0,STARLINK-3325,PAYLOAD,2024-04-29 20:52:38,15.08817759,0.0002039,53.2194,346.4631,86.27,273.8526,-0.00010372,-1.938e-05,0.0,0 STARLINK-3325,1 50843U 22001AS  24120.86989479 -.00001938  00000-0 -10372-3 0  9993,2 50843  53.2194 346.4631 0002039  86.2700 273.8526 15.08817759128982,6917.948,95.439,541.224,538.403,0.0
50843.0,STARLINK-3325,PAYLOAD,2024-04-29 22:28:01,15.08821862,0.0001544,53.2182,346.162,76.6487,283.4677,-0.00010075,-1.89e-05,0.0,0 STARLINK-3325,1 50843U 22001AS  24120.93613155 -.00001890  00000-0 -10075-3 0  9993,2 50843  53.2182 346.1620 0001544  76.6487 283.4677 15.08821862127791,6917.936,95.439,540.869,538.733,0.0
50843.0,STARLINK-3325,PAYLOAD,2024-04-30 08:00:20,15.08831794,0.0001594,53.2181,344.38,85.6916,274.4258,-5.0605e-05,-1.093e-05,0.0,0 STARLINK-3325,1 50843U 22001AS  24121.33356640 -.00001093  00000-0 -50605-4 0  9990,2 50843  53.2181 344.3800 0001594  85.6916 274.4258 15.08831794129053,6917.905,95.438,540.873,538.668,0.0
50843.0,STARLINK-3325,PAYLOAD,2024-04-30 20:43:24,15.08851399,0.0001358,53.2185,342.0006,87.7259,272.3888,-6.4124e-05,-1.309e-05,0.0,0 STARLINK-3325,1 50843U 22001AS  24121.86347414 -.00001309  00000-0 -64124-4 0  9998,2 50843  53.2185 342.0006 0001358  87.7259 272.3888 15.08851399129139,6917.846,95.437,540.65,538.771,0.0
50843.0,STARLINK-3325,PAYLOAD,2024-04-30 22:18:47,15.08852928,0.0001358,53.2187,341.7034,87.8827,272.2321,-3.4341e-05,-8.35e-06,0.0,0 STARLINK-3325,1 50843U 22001AS  24121.92971246 -.00000835  00000-0 -34341-4 0  9992,2 50843  53.2187 341.7034 0001358  87.8827 272.2321 15.08852928127947,6917.841,95.437,540.645,538.766,0.0
50843.0,STARLINK-3325,PAYLOAD,2024-05-01 07:51:05,15.08854393,0.0001341,53.2182,339.9183,84.6576,275.4569,-2.4455e-05,-6.77e-06,0.0,0 STARLINK-3325,1 50843U 22001AS  24122.32714947 -.00000677  00000-0 -24455-4 0  9999,2 50843  53.2182 339.9183 0001341  84.6576 275.4569 15.08854393128009,6917.836,95.437,540.629,538.774,0.0
50843.0,STARLINK-3325,PAYLOAD,2024-05-01 20:34:11,15.08844999,0.0001486,53.2171,337.5394,89.3475,270.7688,0.00048529,7.445e-05,0.0,0 STARLINK-3325,1 50843U 22001AS  24122.85707941  .00007445  00000-0  48529-3 0  9998,2 50843  53.2171 337.5394 0001486  89.3475 270.7688 15.08844999129287,6917.865,95.437,540.758,538.702,0.0
50843.0,STARLINK-3325,PAYLOAD,2024-05-02 07:41:52,15.0885968,0.0001496,53.2174,335.4567,90.0829,270.0335,0.00048162,7.389e-05,0.0,0 STARLINK-3325,1 50843U 22001AS  24123.32075143  .00007389  00000-0  48162-3 0  9993,2 50843  53.2174 335.4567 0001496  90.0829 270.0335 15.08859680129355,6917.82,95.436,540.72,538.65,0.0
50843.0,STARLINK-3325,PAYLOAD,2024-05-02 20:24:58,15.08843551,0.0001895,53.2182,333.0802,64.0407,296.0781,3.4255e-05,2.57e-06,0.0,0 STARLINK-3325,1 50843U 22001AS  24123.85067938  .00000257  00000-0  34255-4 0  9990,2 50843  53.2182 333.0802 0001895  64.0407 296.0781 15.08843551129438,6917.87,95.437,541.045,538.424,0.0
50843.0,STARLINK-3325,PAYLOAD,2024-05-03 13:54:13,15.08840208,0.0001605,53.2158,329.8089,84.2313,275.8863,-1.6065e-05,-5.44e-06,0.0,0 STARLINK-3325,1 50843U 22001AS  24124.57931966 -.00000544  00000-0 -16065-4 0  9991,2 50843  53.2158 329.8089 0001605  84.2313 275.8863 15.08840208128341,6917.88,95.438,540.855,538.634,0.0
50843.0,STARLINK-3325,PAYLOAD,2024-05-03 20:15:46,15.08836699,0.000167,53.2181,328.6198,86.543,273.5753,7.5022e-05,9.06e-06,0.0,0 STARLINK-3325,1 50843U 22001AS  24124.84428249  .00000906  00000-0  75022-4 0  9994,2 50843  53.2181 328.6198 0001670  86.5430 273.5753 15.08836699129581,6917.89,95.438,540.911,538.6,0.0
